{"type": "FeatureCollection", "features": [ {"type": "Feature", "properties": {"norad_id": 42987, "name": "SKYSAT-C11", "group": "resource", "lat": -18.01326880927464, "lon": 137.5953140906569, "alt_km": 428.3664494295972, "timestamp": "2025-12-23T09:49:06.733933+00:00", "meta": {"OBJECT_NAME": "SKYSAT-C11", "OBJECT_ID": "2017-068A", "EPOCH": "2025-12-22T19:55:58.994688", "MEAN_MOTION": 15.47855461, "ECCENTRICITY": 0.000117, "INCLINATION": 97.4148, "RA_OF_ASC_NODE": 134.575, "ARG_OF_PERICENTER": 96.9665, "MEAN_ANOMALY": 263.1718, "EPHEMERIS_TYPE": 0, "CLASSIFICATION_TYPE": "U", "NORAD_CAT_ID": 42987, "ELEMENT_SET_NO": 999, "REV_AT_EPOCH": 45587, "BSTAR": 0.00044558877, "MEAN_MOTION_DOT": 0.00023113, "MEAN_MOTION_DDOT": 0}, "tle": {"line1": "1 42987U 17068A   25356.83054392  .00023113  00000+0  44559-3 0  9996", "line2": "2 42987  97.4148 134.5750 0001170  96.9665 263.1718 15.47855461455873"}}, "geometry": {"type": "Point", "coordinates": [137.5953140906569, -18.01326880927464]}}, {"type": "Feature", "properties": {"norad_id": 42988, "name": "SKYSAT-C10", "group": "resource", "lat": -8.376565846577613, "lon": -52.809484283598145, "alt_km": 474.6447157456396, "timestamp": "2025-12-23T09:49:06.733943+00:00", "meta": {"OBJECT_NAME": "SKYSAT-C10", "OBJECT_ID": "2017-068B", "EPOCH": "2025-12-22T22:01:42.640032", "MEAN_MOTION": 15.32267992, "ECCENTRICITY": 0.00053671, "INCLINATION": 97.4268, "RA_OF_ASC_NODE": 127.7984, "ARG_OF_PERICENTER": 75.8896, "MEAN_ANOMALY": 284.2942, "EPHEMERIS_TYPE": 0, "CLASSIFICATION_TYPE": "U", "NORAD_CAT_ID": 42988, "ELEMENT_SET_NO": 999, "REV_AT_EPOCH": 45535, "BSTAR": 0.00039031943, "MEAN_MOTION_DOT": 0.00012093, "MEAN_MOTION_DDOT": 0}, "tle": {"line1": "1 42988U 17068B   25356.91785463  .00012093  00000+0  39032-3 0  9991", "line2": "2 42988  97.4268 127.7984 0005367  75.8896 284.2942 15.32267992455350"}}, "geometry": {"type": "Point", "coordinates": [-52.809484283598145, -8.376565846577613]}}, {"type": "Feature", "properties": {"norad_id": 42989, "name": "SKYSAT-C9", "group": "resource", "lat": -9.678821548016417, "lon": -53.52487683820449, "alt_km": 466.4341019026715, "timestamp": "2025-12-23T09:49:06.733954+00:00", "meta": {"OBJECT_NAME": "SKYSAT-C9", "OBJECT_ID": "2017-068C", "EPOCH": "2025-12-22T22:03:14.284512", "MEAN_MOTION": 15.36294506, "ECCENTRICITY": 0.00103841, "INCLINATION": 97.4197, "RA_OF_ASC_NODE": 127.2545, "ARG_OF_PERICENTER": 55.2343, "MEAN_ANOMALY": 304.9877, "EPHEMERIS_TYPE": 0, "CLASSIFICATION_TYPE": "U", "NORAD_CAT_ID": 42989, "ELEMENT_SET_NO": 999, "REV_AT_EPOCH": 45564, "BSTAR": 0.00039577378, "MEAN_MOTION_DOT": 0.00013955, "MEAN_MOTION_DDOT": 0}, "tle": {"line1": "1 42989U 17068C   25356.91891533  .00013955  00000+0  39577-3 0  9990", "line2": "2 42989  97.4197 127.2545 0010384  55.2343 304.9877 15.36294506455648"}}, "geometry": {"type": "Point", "coordinates": [-53.52487683820449, -9.678821548016417]}}, {"type": "Feature", "properties": {"norad_id": 42990, "name": "SKYSAT-C8", "group": "resource", "lat": 39.22059906157106, "lon": 121.34381926313988, "alt_km": 463.813356457591, "timestamp": "2025-12-23T09:49:06.733964+00:00", "meta": {"OBJECT_NAME": "SKYSAT-C8", "OBJECT_ID": "2017-068D", "EPOCH": "2025-12-22T19:32:54.396672", "MEAN_MOTION": 15.33130877, "ECCENTRICITY": 0.0001011, "INCLINATION": 97.4294, "RA_OF_ASC_NODE": 126.8603, "ARG_OF_PERICENTER": 287.7058, "MEAN_ANOMALY": 72.4073, "EPHEMERIS_TYPE": 0, "CLASSIFICATION_TYPE": "U", "NORAD_CAT_ID": 42990, "ELEMENT_SET_NO": 999, "REV_AT_EPOCH": 45525, "BSTAR": 0.00037108579, "MEAN_MOTION_DOT": 0.00011804, "MEAN_MOTION_DDOT": 0}, "tle": {"line1": "1 42990U 17068D   25356.81451848  .00011804  00000+0  37109-3 0  9992", "line2": "2 42990  97.4294 126.8603 0001011 287.7058  72.4073 15.33130877455259"}}, "geometry": {"type": "Point", "coordinates": [121.34381926313988, 39.22059906157106]}}, {"type": "Feature", "properties": {"norad_id": 42991, "name": "SKYSAT-C7", "group": "resource", "lat": -51.58211881600508, "lon": -60.980627430327964, "alt_km": 479.4206247913935, "timestamp": "2025-12-23T09:49:06.733975+00:00", "meta": {"OBJECT_NAME": "SKYSAT-C7", "OBJECT_ID": "2017-068E", "EPOCH": "2025-12-22T20:16:20.403840", "MEAN_MOTION": 15.32529052, "ECCENTRICITY": 0.00069664, "INCLINATION": 97.43, "RA_OF_ASC_NODE": 127.9237, "ARG_OF_PERICENTER": 25.638, "MEAN_ANOMALY": 334.5206, "EPHEMERIS_TYPE": 0, "CLASSIFICATION_TYPE": "U", "NORAD_CAT_ID": 42991, "ELEMENT_SET_NO": 999, "REV_AT_EPOCH": 45532, "BSTAR": 0.0003815583, "MEAN_MOTION_DOT": 0.0001192, "MEAN_MOTION_DDOT": 0}, "tle": {"line1": "1 42991U 17068E   25356.84468060  .00011920  00000+0  38156-3 0  9992", "line2": "2 42991  97.4300 127.9237 0006966  25.6380 334.5206 15.32529052455328"}}, "geometry": {"type": "Point", "coordinates": [-60.980627430327964, -51.58211881600508]}}, {"type": "Feature", "properties": {"norad_id": 42992, "name": "SKYSAT-C6", "group": "resource", "lat": -42.85623743576528, "lon": 135.87701595515907, "alt_km": 477.82415098947786, "timestamp": "2025-12-23T09:49:06.733985+00:00", "meta": {"OBJECT_NAME": "SKYSAT-C6", "OBJECT_ID": "2017-068F", "EPOCH": "2025-12-22T19:53:45.861792", "MEAN_MOTION": 15.31684652, "ECCENTRICITY": 0.00048691, "INCLINATION": 97.4328, "RA_OF_ASC_NODE": 128.3379, "ARG_OF_PERICENTER": 55.1804, "MEAN_ANOMALY": 304.9894, "EPHEMERIS_TYPE": 0, "CLASSIFICATION_TYPE": "U", "NORAD_CAT_ID": 42992, "ELEMENT_SET_NO": 999, "REV_AT_EPOCH": 45530, "BSTAR": 0.00035608975, "MEAN_MOTION_DOT": 0.00010824, "MEAN_MOTION_DDOT": 0}, "tle": {"line1": "1 42992U 17068F   25356.82900303  .00010824  00000+0  35609-3 0  9994", "line2": "2 42992  97.4328 128.3379 0004869  55.1804 304.9894 15.31684652455309"}}, "geometry": {"type": "Point", "coordinates": [135.87701595515907, -42.85623743576528]}}, {"type": "Feature", "properties": {"norad_id": 43111, "name": "CARTOSAT-2F", "group": "resource", "lat": -49.51045203205206, "lon": 63.66613798865154, "alt_km": 516.0935626224518, "timestamp": "2025-12-23T09:49:06.733995+00:00", "meta": {"OBJECT_NAME": "CARTOSAT-2F", "OBJECT_ID": "2018-004A", "EPOCH": "2025-12-22T22:58:23.852064", "MEAN_MOTION": 15.19217359, "ECCENTRICITY": 0.00015153, "INCLINATION": 97.4306, "RA_OF_ASC_NODE": 54.4286, "ARG_OF_PERICENTER": 109.6698, "MEAN_ANOMALY": 250.4701, "EPHEMERIS_TYPE": 0, "CLASSIFICATION_TYPE": "U", "NORAD_CAT_ID": 43111, "ELEMENT_SET_NO": 999, "REV_AT_EPOCH": 44057, "BSTAR": 0.00023803619, "MEAN_MOTION_DOT": 4.945e-05, "MEAN_MOTION_DDOT": 0}, "tle": {"line1": "1 43111U 18004A   25356.95722051  .00004945  00000+0  23804-3 0  9996", "line2": "2 43111  97.4306  54.4286 0001515 109.6698 250.4701 15.19217359440573"}}, "geometry": {"type": "Point", "coordinates": [63.66613798865154, -49.51045203205206]}}, {"type": "Feature", "properties": {"norad_id": 43259, "name": "GAOFEN-1 02", "group": "resource", "lat": -53.64512373724323, "lon": -135.92549378757872, "alt_km": 646.6899571159865, "timestamp": "2025-12-23T09:49:06.734005+00:00", "meta": {"OBJECT_NAME": "GAOFEN-1 02", "OBJECT_ID": "2018-031A", "EPOCH": "2025-12-22T23:00:04.394880", "MEAN_MOTION": 14.76434296, "ECCENTRICITY": 0.00024573, "INCLINATION": 98.0794, "RA_OF_ASC_NODE": 54.751, "ARG_OF_PERICENTER": 177.9131, "MEAN_ANOMALY": 182.2089, "EPHEMERIS_TYPE": 0, "CLASSIFICATION_TYPE": "U", "NORAD_CAT_ID": 43259, "ELEMENT_SET_NO": 999, "REV_AT_EPOCH": 41669, "BSTAR": 0.00010060897, "MEAN_MOTION_DOT": 6.48e-06, "MEAN_MOTION_DDOT": 0}, "tle": {"line1": "1 43259U 18031A   25356.95838420  .00000648  00000+0  10061-3 0  9994", "line2": "2 43259  98.0794  54.7510 0002457 177.9131 182.2089 14.76434296416693"}}, "geometry": {"type": "Point", "coordinates": [-135.92549378757872, -53.64512373724323]}}, {"type": "Feature", "properties": {"norad_id": 43260, "name": "GAOFEN-1 03", "group": "resource", "lat": -9.663624600970373, "lon": 56.46343344178846, "alt_km": 644.5828359382458, "timestamp": "2025-12-23T09:49:06.734015+00:00", "meta": {"OBJECT_NAME": "GAOFEN-1 03", "OBJECT_ID": "2018-031B", "EPOCH": "2025-12-22T22:28:37.819776", "MEAN_MOTION": 14.76457001, "ECCENTRICITY": 0.00017023, "INCLINATION": 98.0784, "RA_OF_ASC_NODE": 54.605, "ARG_OF_PERICENTER": 267.789, "MEAN_ANOMALY": 92.3124, "EPHEMERIS_TYPE": 0, "CLASSIFICATION_TYPE": "U", "NORAD_CAT_ID": 43260, "ELEMENT_SET_NO": 999, "REV_AT_EPOCH": 41668, "BSTAR": 0.00013842995, "MEAN_MOTION_DOT": 9.11e-06, "MEAN_MOTION_DDOT": 0}, "tle": {"line1": "1 43260U 18031B   25356.93654884  .00000911  00000+0  13843-3 0  9998", "line2": "2 43260  98.0784  54.6050 0001702 267.7890  92.3124 14.76457001416683"}}, "geometry": {"type": "Point", "coordinates": [56.46343344178846, -9.663624600970373]}}, {"type": "Feature", "properties": {"norad_id": 43262, "name": "GAOFEN-1 04", "group": "resource", "lat": 59.4362780441022, "lon": -110.83332553789191, "alt_km": 634.6815963540166, "timestamp": "2025-12-23T09:49:06.734026+00:00", "meta": {"OBJECT_NAME": "GAOFEN-1 04", "OBJECT_ID": "2018-031D", "EPOCH": "2025-12-22T23:31:11.763264", "MEAN_MOTION": 14.76423826, "ECCENTRICITY": 6.095e-05, "INCLINATION": 98.0795, "RA_OF_ASC_NODE": 54.8189, "ARG_OF_PERICENTER": 58.6308, "MEAN_ANOMALY": 301.4961, "EPHEMERIS_TYPE": 0, "CLASSIFICATION_TYPE": "U", "NORAD_CAT_ID": 43262, "ELEMENT_SET_NO": 999, "REV_AT_EPOCH": 41668, "BSTAR": 7.3416457e-05, "MEAN_MOTION_DOT": 4.59e-06, "MEAN_MOTION_DDOT": 0}, "tle": {"line1": "1 43262U 18031D   25356.97999726  .00000459  00000+0  73416-4 0  9991", "line2": "2 43262  98.0795  54.8189 0000609  58.6308 301.4961 14.76423826416689"}}, "geometry": {"type": "Point", "coordinates": [-110.83332553789191, 59.4362780441022]}}]}